GLOBALSTAR M075         
1 37192U 10054E   25031.87749370 -.00000099  00000+0  27431-4 0  9997
2 37192  51.9926 236.5705 0001041  85.2292 288.7196 12.62272680658633
GLOBALSTAR M073         
1 37193U 10054F   25031.83458587 -.00000095  00000+0  46186-4 0  9995
2 37193  52.0049 150.4154 0000934 100.7447  76.8252 12.62262789660618
GLOBALSTAR M083         
1 37739U 11033A   25032.20805828 -.00000075  00000+0  16034-3 0  9991
2 37739  51.9858  98.1947 0000410 116.7389 259.9909 12.62271311630047
GLOBALSTAR M088         
1 37740U 11033B   25031.33945240 -.00000099  00000+0  29230-4 0  9998
2 37740  51.9757   6.4460 0000253  55.1021  92.7306 12.62267865625118
GLOBALSTAR M091         
1 37741U 11033C   25032.22382234 -.00000075  00000+0  15871-3 0  9995
2 37741  52.0038 327.0665 0000362  33.1146 114.9275 12.62265007626273
GLOBALSTAR M085         
1 37742U 11033D   25031.70682573 -.00000064  00000+0  22206-3 0  9995
2 37742  51.9865 279.8011 0000687  56.8626 320.5837 12.62264958626468
GLOBALSTAR M081         
1 37743U 11033E   25032.16140785 -.00000065  00000+0  21916-3 0  9999
2 37743  51.9957 281.1180 0000884  53.5098 111.8036 12.62260122627046
GLOBALSTAR M089         
1 37744U 11033F   25031.61281657 -.00000092  00000+0  64730-4 0  9995
2 37744  51.9907 237.0422 0001242  83.4575 286.7827 12.62265923627697
